[
    {
        "Altitude(m)": 704381.0452573749,
        "Argument of Periapsis(deg)": 0.007973084830638947,
        "Eccentricity": 0.0,
        "Inclination(deg)": 45.0,
        "Latitude(deg)": -5.797808404215901,
        "Longitude(deg)": -4.736200504562978,
        "Mean Anomaly(deg)": -171.92674834676342,
        "RAAN(deg)": 269.99247364097926,
        "Satellite Name": "Constellation 1 1199",
        "Satellite Number": 1199,
        "Semi-Major Axis(m)": 7083131.272910544,
        "Time(s)": 133
    },
    {
        "Altitude(m)": 704389.3395808991,
        "Argument of Periapsis(deg)": 0.008033032836884352,
        "Eccentricity": 0.0,
        "Inclination(deg)": 45.0,
        "Latitude(deg)": -5.840786650293256,
        "Longitude(deg)": -4.697020011706747,
        "Mean Anomaly(deg)": -171.86604720651354,
        "RAAN(deg)": 269.99241705181373,
        "Satellite Name": "Constellation 1 1199",
        "Satellite Number": 1199,
        "Semi-Major Axis(m)": 7083131.272910544,
        "Time(s)": 134
    },
    {
        "Altitude(m)": 704397.6528284128,
        "Argument of Periapsis(deg)": 0.008092980843129758,
        "Eccentricity": 0.0,
        "Inclination(deg)": 45.0,
        "Latitude(deg)": -5.8837614162164895,
        "Longitude(deg)": -4.657833006024619,
        "Mean Anomaly(deg)": -171.8053460662636,
        "RAAN(deg)": 269.9923604626481,
        "Satellite Name": "Constellation 1 1199",
        "Satellite Number": 1199,
        "Semi-Major Axis(m)": 7083131.272910544,
        "Time(s)": 135
    },
    {
        "Altitude(m)": 704405.9849810412,
        "Argument of Periapsis(deg)": 0.008152928849375162,
        "Eccentricity": 0.0,
        "Inclination(deg)": 45.0,
        "Latitude(deg)": -5.926732676249955,
        "Longitude(deg)": -4.618639438283387,
        "Mean Anomaly(deg)": -171.7446449260137,
        "RAAN(deg)": 269.9923038734825,
        "Satellite Name": "Constellation 1 1199",
        "Satellite Number": 1199,
        "Semi-Major Axis(m)": 7083131.272910544,
        "Time(s)": 136
    },
    {
        "Altitude(m)": 704414.3360198321,
        "Argument of Periapsis(deg)": 0.008212876855620568,
        "Eccentricity": 0.0,
        "Inclination(deg)": 45.0,
        "Latitude(deg)": -5.969700404645661,
        "Longitude(deg)": -4.57943925923585,
        "Mean Anomaly(deg)": -171.68394378576383,
        "RAAN(deg)": 269.992247284317,
        "Satellite Name": "Constellation 1 1199",
        "Satellite Number": 1199,
        "Semi-Major Axis(m)": 7083131.272910544,
        "Time(s)": 137
    },
    {
        "Altitude(m)": 704422.7059257384,
        "Argument of Periapsis(deg)": 0.008272824861865974,
        "Eccentricity": 0.0,
        "Inclination(deg)": 45.0,
        "Latitude(deg)": -6.01266457564336,
        "Longitude(deg)": -4.54023241962077,
        "Mean Anomaly(deg)": -171.62324264551393,
        "RAAN(deg)": 269.9921906951514,
        "Satellite Name": "Constellation 1 1199",
        "Satellite Number": 1199,
        "Semi-Major Axis(m)": 7083131.272910544,
        "Time(s)": 138
    },
    {
        "Altitude(m)": 704431.0946796397,
        "Argument of Periapsis(deg)": 0.00833277286811138,
        "Eccentricity": 0.0,
        "Inclination(deg)": 45.0,
        "Latitude(deg)": -6.055625163470469,
        "Longitude(deg)": -4.501018870162547,
        "Mean Anomaly(deg)": -171.56254150526408,
        "RAAN(deg)": 269.9921341059858,
        "Satellite Name": "Constellation 1 1199",
        "Satellite Number": 1199,
        "Semi-Major Axis(m)": 7083131.272910544,
        "Time(s)": 139
    },
    {
        "Altitude(m)": 704439.5022623001,
        "Argument of Periapsis(deg)": 0.008392720874356788,
        "Eccentricity": 0.0,
        "Inclination(deg)": 45.0,
        "Latitude(deg)": -6.098582142341916,
        "Longitude(deg)": -4.4617985615713,
        "Mean Anomaly(deg)": -171.50184036501412,
        "RAAN(deg)": 269.99207751682025,
        "Satellite Name": "Constellation 1 1199",
        "Satellite Number": 1199,
        "Semi-Major Axis(m)": 7083131.272910544,
        "Time(s)": 140
    },
    {
        "Altitude(m)": 704447.9286544251,
        "Argument of Periapsis(deg)": 0.008452668880602192,
        "Eccentricity": 0.0,
        "Inclination(deg)": 45.0,
        "Latitude(deg)": -6.141535486460255,
        "Longitude(deg)": -4.42257161263992,
        "Mean Anomaly(deg)": -171.44113922476419,
        "RAAN(deg)": 269.9920209276547,
        "Satellite Name": "Constellation 1 1199",
        "Satellite Number": 1199,
        "Semi-Major Axis(m)": 7083131.272910544,
        "Time(s)": 141
    },
    {
        "Altitude(m)": 704456.3738366119,
        "Argument of Periapsis(deg)": 0.008512616886847598,
        "Eccentricity": 0.0,
        "Inclination(deg)": 45.0,
        "Latitude(deg)": -6.1844851700143755,
        "Longitude(deg)": -4.383337637855739,
        "Mean Anomaly(deg)": -171.38043808451437,
        "RAAN(deg)": 269.99196433848914,
        "Satellite Name": "Constellation 1 1199",
        "Satellite Number": 1199,
        "Semi-Major Axis(m)": 7083131.272910544,
        "Time(s)": 142
    },
    {
        "Altitude(m)": 704464.8377893782,
        "Argument of Periapsis(deg)": 0.008572564893093004,
        "Eccentricity": 0.0,
        "Inclination(deg)": 45.0,
        "Latitude(deg)": -6.227431167181666,
        "Longitude(deg)": -4.344096755982106,
        "Mean Anomaly(deg)": -171.3197369442644,
        "RAAN(deg)": 269.99190774932356,
        "Satellite Name": "Constellation 1 1199",
        "Satellite Number": 1199,
        "Semi-Major Axis(m)": 7083131.272910544,
        "Time(s)": 143
    },
    {
        "Altitude(m)": 704473.3204931536,
        "Argument of Periapsis(deg)": 0.008632512899338408,
        "Eccentricity": 0.0,
        "Inclination(deg)": 45.0,
        "Latitude(deg)": -6.270373452125822,
        "Longitude(deg)": -4.304848917671362,
        "Mean Anomaly(deg)": -171.25903580401456,
        "RAAN(deg)": 269.991851160158,
        "Satellite Name": "Constellation 1 1199",
        "Satellite Number": 1199,
        "Semi-Major Axis(m)": 7083131.272910544,
        "Time(s)": 144
    },
    {
        "Altitude(m)": 704481.8219282777,
        "Argument of Periapsis(deg)": 0.008692460905583814,
        "Eccentricity": 0.0,
        "Inclination(deg)": 45.0,
        "Latitude(deg)": -6.313311998998107,
        "Longitude(deg)": -4.2655940735603455,
        "Mean Anomaly(deg)": -171.19833466376463,
        "RAAN(deg)": 269.9917945709924,
        "Satellite Name": "Constellation 1 1199",
        "Satellite Number": 1199,
        "Semi-Major Axis(m)": 7083131.272910544,
        "Time(s)": 145
    },
    {
        "Altitude(m)": 704490.3420749966,
        "Argument of Periapsis(deg)": 0.00875240891182922,
        "Eccentricity": 0.0,
        "Inclination(deg)": 45.0,
        "Latitude(deg)": -6.356246781936266,
        "Longitude(deg)": -4.226332174271502,
        "Mean Anomaly(deg)": -171.13763352351475,
        "RAAN(deg)": 269.9917379818269,
        "Satellite Name": "Constellation 1 1199",
        "Satellite Number": 1199,
        "Semi-Major Axis(m)": 7083131.272910544,
        "Time(s)": 146
    },
    {
        "Altitude(m)": 704498.880913482,
        "Argument of Periapsis(deg)": 0.008812356918074627,
        "Eccentricity": 0.0,
        "Inclination(deg)": 45.0,
        "Latitude(deg)": -6.399177775065236,
        "Longitude(deg)": -4.187063170412158,
        "Mean Anomaly(deg)": -171.07693238326485,
        "RAAN(deg)": 269.9916813926613,
        "Satellite Name": "Constellation 1 1199",
        "Satellite Number": 1199,
        "Semi-Major Axis(m)": 7083131.272910544,
        "Time(s)": 147
    },
    {
        "Altitude(m)": 704507.4384238082,
        "Argument of Periapsis(deg)": 0.008872304924320031,
        "Eccentricity": 0.0,
        "Inclination(deg)": 45.0,
        "Latitude(deg)": -6.442104952496872,
        "Longitude(deg)": -4.147787180671307,
        "Mean Anomaly(deg)": -171.01623124301491,
        "RAAN(deg)": 269.9916248034957,
        "Satellite Name": "Constellation 1 1199",
        "Satellite Number": 1199,
        "Semi-Major Axis(m)": 7083131.272910544,
        "Time(s)": 148
    },
    {
        "Altitude(m)": 704516.0145859674,
        "Argument of Periapsis(deg)": 0.008932252930565437,
        "Eccentricity": 0.0,
        "Inclination(deg)": 45.0,
        "Latitude(deg)": -6.485028288328653,
        "Longitude(deg)": -4.108503819432041,
        "Mean Anomaly(deg)": -170.95553010276507,
        "RAAN(deg)": 269.99156821433013,
        "Satellite Name": "Constellation 1 1199",
        "Satellite Number": 1199,
        "Semi-Major Axis(m)": 7083131.272910544,
        "Time(s)": 149
    },
    {
        "Altitude(m)": 704524.6093798557,
        "Argument of Periapsis(deg)": 0.008992200936810843,
        "Eccentricity": 0.0,
        "Inclination(deg)": 45.0,
        "Latitude(deg)": -6.527947756645823,
        "Longitude(deg)": -4.069213205352958,
        "Mean Anomaly(deg)": -170.89482896251508,
        "RAAN(deg)": 269.99151162516455,
        "Satellite Name": "Constellation 1 1199",
        "Satellite Number": 1199,
        "Semi-Major Axis(m)": 7083131.272910544,
        "Time(s)": 150
    },
    {
        "Altitude(m)": 704533.2227852897,
        "Argument of Periapsis(deg)": 0.009052148943056249,
        "Eccentricity": 0.0,
        "Inclination(deg)": 45.0,
        "Latitude(deg)": -6.570863331519354,
        "Longitude(deg)": -4.029915288980551,
        "Mean Anomaly(deg)": -170.83412782226526,
        "RAAN(deg)": 269.991455035999,
        "Satellite Name": "Constellation 1 1199",
        "Satellite Number": 1199,
        "Semi-Major Axis(m)": 7083131.272910544,
        "Time(s)": 151
    }
]